[{"OBJECT_NAME":"STARLINK-5582","OBJECT_ID":"2023-078L","EPOCH":"2025-12-16T07:06:05.061888","MEAN_MOTION":14.98328403,"ECCENTRICITY":0.00022995,"INCLINATION":69.9982,"RA_OF_ASC_NODE":194.9206,"ARG_OF_PERICENTER":273.6953,"MEAN_ANOMALY":86.3943,"EPHEMERIS_TYPE":0,"CLASSIFICATION_TYPE":"U","NORAD_CAT_ID":56777,"ELEMENT_SET_NO":999,"REV_AT_EPOCH":14018,"BSTAR":-0.00013926405,"MEAN_MOTION_DOT":-1.754e-5,"MEAN_MOTION_DDOT":0},{"OBJECT_NAME":"STARLINK-6304","OBJECT_ID":"2023-078M","EPOCH":"2025-12-15T22:23:00.261024","MEAN_MOTION":14.98332337,"ECCENTRICITY":0.00020264,"INCLINATION":69.9981,"RA_OF_ASC_NODE":175.7917,"ARG_OF_PERICENTER":264.9415,"MEAN_ANOMALY":95.1513,"EPHEMERIS_TYPE":0,"CLASSIFICATION_TYPE":"U","NORAD_CAT_ID":56778,"ELEMENT_SET_NO":999,"REV_AT_EPOCH":14062,"BSTAR":5.6720837e-5,"MEAN_MOTION_DOT":5.84e-6,"MEAN_MOTION_DDOT":0},{"OBJECT_NAME":"STARLINK-6231","OBJECT_ID":"2023-078N","EPOCH":"2025-12-16T05:47:37.065408","MEAN_MOTION":14.98326727,"ECCENTRICITY":0.00027284,"INCLINATION":69.9983,"RA_OF_ASC_NODE":174.8615,"ARG_OF_PERICENTER":270.5748,"MEAN_ANOMALY":89.5099,"EPHEMERIS_TYPE":0,"CLASSIFICATION_TYPE":"U","NORAD_CAT_ID":56779,"ELEMENT_SET_NO":999,"REV_AT_EPOCH":14066,"BSTAR":-6.719335e-5,"MEAN_MOTION_DOT":-8.95e-6,"MEAN_MOTION_DDOT":0},{"OBJECT_NAME":"STARLINK-5963","OBJECT_ID":"2023-078P","EPOCH":"2025-12-16T07:00:16.725600","MEAN_MOTION":14.98323724,"ECCENTRICITY":0.00026289,"INCLINATION":69.9991,"RA_OF_ASC_NODE":194.5262,"ARG_OF_PERICENTER":271.1077,"MEAN_ANOMALY":88.978,"EPHEMERIS_TYPE":0,"CLASSIFICATION_TYPE":"U","NORAD_CAT_ID":56780,"ELEMENT_SET_NO":999,"REV_AT_EPOCH":14019,"BSTAR":2.7922e-6,"MEAN_MOTION_DOT":-6.0e-7,"MEAN_MOTION_DDOT":0},{"OBJECT_NAME":"STARLINK-5989","OBJECT_ID":"2023-078Q","EPOCH":"2025-12-16T06:36:01.927584","MEAN_MOTION":14.98341333,"ECCENTRICITY":0.00029476,"INCLINATION":69.9982,"RA_OF_ASC_NODE":194.8462,"ARG_OF_PERICENTER":273.6324,"MEAN_ANOMALY":86.4498,"EPHEMERIS_TYPE":0,"CLASSIFICATION_TYPE":"U","NORAD_CAT_ID":56781,"ELEMENT_SET_NO":999,"REV_AT_EPOCH":14018,"BSTAR":0.00015532294,"MEAN_MOTION_DOT":1.761e-5,"MEAN_MOTION_DDOT":0},{"OBJECT_NAME":"STARLINK-6352","OBJECT_ID":"2023-078R","EPOCH":"2025-12-16T06:17:41.363520","MEAN_MOTION":14.98316232,"ECCENTRICITY":0.00031617,"INCLINATION":69.9979,"RA_OF_ASC_NODE":174.9354,"ARG_OF_PERICENTER":269.3985,"MEAN_ANOMALY":90.6812,"EPHEMERIS_TYPE":0,"CLASSIFICATION_TYPE":"U","NORAD_CAT_ID":56782,"ELEMENT_SET_NO":999,"REV_AT_EPOCH":14067,"BSTAR":0.00011170069,"MEAN_MOTION_DOT":1.24e-5,"MEAN_MOTION_DDOT":0},{"OBJECT_NAME":"STARLINK-6357","OBJECT_ID":"2023-078S","EPOCH":"2025-12-15T22:04:58.100160","MEAN_MOTION":14.98333186,"ECCENTRICITY":0.00029255,"INCLINATION":69.9982,"RA_OF_ASC_NODE":175.7468,"ARG_OF_PERICENTER":270.6589,"MEAN_ANOMALY":89.4235,"EPHEMERIS_TYPE":0,"CLASSIFICATION_TYPE":"U","NORAD_CAT_ID":56783,"ELEMENT_SET_NO":999,"REV_AT_EPOCH":14062,"BSTAR":-1.9488634e-5,"MEAN_MOTION_DOT":-3.26e-6,"MEAN_MOTION_DDOT":0},{"OBJECT_NAME":"STARLINK-6354","OBJECT_ID":"2023-078T","EPOCH":"2025-12-16T06:11:41.054784","MEAN_MOTION":14.98328784,"ECCENTRICITY":0.00028076,"INCLINATION":69.9985,"RA_OF_ASC_NODE":174.9207,"ARG_OF_PERICENTER":275.3025,"MEAN_ANOMALY":84.7814,"EPHEMERIS_TYPE":0,"CLASSIFICATION_TYPE":"U","NORAD_CAT_ID":56784,"ELEMENT_SET_NO":999,"REV_AT_EPOCH":14067,"BSTAR":0.00016341949,"MEAN_MOTION_DOT":1.857e-5,"MEAN_MOTION_DDOT":0},{"OBJECT_NAME":"STARLINK-5931","OBJECT_ID":"2023-078U","EPOCH":"2025-12-16T06:48:02.775744","MEAN_MOTION":14.98323829,"ECCENTRICITY":0.00023086,"INCLINATION":69.9993,"RA_OF_ASC_NODE":194.8765,"ARG_OF_PERICENTER":268.9531,"MEAN_ANOMALY":91.1364,"EPHEMERIS_TYPE":0,"CLASSIFICATION_TYPE":"U","NORAD_CAT_ID":56785,"ELEMENT_SET_NO":999,"REV_AT_EPOCH":14087,"BSTAR":-1.0680046e-5,"MEAN_MOTION_DOT":-2.2e-6,"MEAN_MOTION_DDOT":0},{"OBJECT_NAME":"STARLINK-6341","OBJECT_ID":"2023-078V","EPOCH":"2025-12-16T05:59:38.114880","MEAN_MOTION":14.98334496,"ECCENTRICITY":0.00031998,"INCLINATION":69.9986,"RA_OF_ASC_NODE":174.892,"ARG_OF_PERICENTER":252.1731,"MEAN_ANOMALY":107.9079,"EPHEMERIS_TYPE":0,"CLASSIFICATION_TYPE":"U","NORAD_CAT_ID":56786,"ELEMENT_SET_NO":999,"REV_AT_EPOCH":14067,"BSTAR":-0.00027196231,"MEAN_MOTION_DOT":-3.337e-5,"MEAN_MOTION_DDOT":0},{"OBJECT_NAME":"STARLINK-6326","OBJECT_ID":"2023-078W","EPOCH":"2025-12-16T05:23:34.702944","MEAN_MOTION":14.98331782,"ECCENTRICITY":0.00019276,"INCLINATION":70.0008,"RA_OF_ASC_NODE":174.8057,"ARG_OF_PERICENTER":278.314,"MEAN_ANOMALY":81.7801,"EPHEMERIS_TYPE":0,"CLASSIFICATION_TYPE":"U","NORAD_CAT_ID":56787,"ELEMENT_SET_NO":999,"REV_AT_EPOCH":14067,"BSTAR":-0.00022407693,"MEAN_MOTION_DOT":-2.765e-5,"MEAN_MOTION_DDOT":0},{"OBJECT_NAME":"STARLINK-6336","OBJECT_ID":"2023-078X","EPOCH":"2025-12-15T23:29:04.871904","MEAN_MOTION":14.98332418,"ECCENTRICITY":0.00027617,"INCLINATION":69.9985,"RA_OF_ASC_NODE":175.55,"ARG_OF_PERICENTER":271.7122,"MEAN_ANOMALY":88.3721,"EPHEMERIS_TYPE":0,"CLASSIFICATION_TYPE":"U","NORAD_CAT_ID":56788,"ELEMENT_SET_NO":999,"REV_AT_EPOCH":14063,"BSTAR":3.89696e-7,"MEAN_MOTION_DOT":-8.8e-7,"MEAN_MOTION_DDOT":0},{"OBJECT_NAME":"STARLINK-6345","OBJECT_ID":"2023-078Z","EPOCH":"2025-12-15T21:28:35.684544","MEAN_MOTION":14.98317658,"ECCENTRICITY":0.00030223,"INCLINATION":69.9984,"RA_OF_ASC_NODE":155.7765,"ARG_OF_PERICENTER":265.2177,"MEAN_ANOMALY":94.8637,"EPHEMERIS_TYPE":0,"CLASSIFICATION_TYPE":"U","NORAD_CAT_ID":56790,"ELEMENT_SET_NO":999,"REV_AT_EPOCH":14111,"BSTAR":6.6597325e-5,"MEAN_MOTION_DOT":7.01e-6,"MEAN_MOTION_DDOT":0},{"OBJECT_NAME":"STARLINK-5977","OBJECT_ID":"2023-078AA","EPOCH":"2025-12-15T23:29:24.506304","MEAN_MOTION":14.98332283,"ECCENTRICITY":0.00026235,"INCLINATION":69.9977,"RA_OF_ASC_NODE":195.4201,"ARG_OF_PERICENTER":266.8274,"MEAN_ANOMALY":93.2585,"EPHEMERIS_TYPE":0,"CLASSIFICATION_TYPE":"U","NORAD_CAT_ID":56791,"ELEMENT_SET_NO":999,"REV_AT_EPOCH":14014,"BSTAR":-0.00019889812,"MEAN_MOTION_DOT":-2.465e-5,"MEAN_MOTION_DDOT":0},{"OBJECT_NAME":"STARLINK-6046","OBJECT_ID":"2023-078AB","EPOCH":"2025-12-16T00:29:32.456256","MEAN_MOTION":14.98323071,"ECCENTRICITY":0.00019135,"INCLINATION":69.9984,"RA_OF_ASC_NODE":195.5645,"ARG_OF_PERICENTER":262.2821,"MEAN_ANOMALY":97.8121,"EPHEMERIS_TYPE":0,"CLASSIFICATION_TYPE":"U","NORAD_CAT_ID":56792,"ELEMENT_SET_NO":999,"REV_AT_EPOCH":14014,"BSTAR":4.2077484e-5,"MEAN_MOTION_DOT":4.09e-6,"MEAN_MOTION_DDOT":0},{"OBJECT_NAME":"STARLINK-6052","OBJECT_ID":"2023-078AC","EPOCH":"2025-12-15T23:53:28.354848","MEAN_MOTION":14.98325037,"ECCENTRICITY":0.00029552,"INCLINATION":69.9981,"RA_OF_ASC_NODE":195.4755,"ARG_OF_PERICENTER":268.9521,"MEAN_ANOMALY":91.1299,"EPHEMERIS_TYPE":0,"CLASSIFICATION_TYPE":"U","NORAD_CAT_ID":56793,"ELEMENT_SET_NO":999,"REV_AT_EPOCH":14014,"BSTAR":0.00013525495,"MEAN_MOTION_DOT":1.521e-5,"MEAN_MOTION_DDOT":0},{"OBJECT_NAME":"STARLINK-6060","OBJECT_ID":"2023-078AD","EPOCH":"2025-12-16T05:41:37.874688","MEAN_MOTION":14.98317037,"ECCENTRICITY":0.00025386,"INCLINATION":69.9991,"RA_OF_ASC_NODE":174.8466,"ARG_OF_PERICENTER":268.6423,"MEAN_ANOMALY":91.4445,"EPHEMERIS_TYPE":0,"CLASSIFICATION_TYPE":"U","NORAD_CAT_ID":56794,"ELEMENT_SET_NO":999,"REV_AT_EPOCH":14067,"BSTAR":-8.3055585e-5,"MEAN_MOTION_DOT":-1.083e-5,"MEAN_MOTION_DDOT":0},{"OBJECT_NAME":"STARLINK-6061","OBJECT_ID":"2023-078AE","EPOCH":"2025-12-15T22:41:13.898400","MEAN_MOTION":14.98333291,"ECCENTRICITY":0.00029717,"INCLINATION":69.9983,"RA_OF_ASC_NODE":175.4329,"ARG_OF_PERICENTER":269.6412,"MEAN_ANOMALY":90.4407,"EPHEMERIS_TYPE":0,"CLASSIFICATION_TYPE":"U","NORAD_CAT_ID":56795,"ELEMENT_SET_NO":999,"REV_AT_EPOCH":14063,"BSTAR":6.9182323e-5,"MEAN_MOTION_DOT":7.33e-6,"MEAN_MOTION_DDOT":0},{"OBJECT_NAME":"STARLINK-6049","OBJECT_ID":"2023-078AF","EPOCH":"2025-12-16T06:42:01.861344","MEAN_MOTION":14.98331488,"ECCENTRICITY":0.00028517,"INCLINATION":69.9983,"RA_OF_ASC_NODE":194.8613,"ARG_OF_PERICENTER":270.4518,"MEAN_ANOMALY":89.6314,"EPHEMERIS_TYPE":0,"CLASSIFICATION_TYPE":"U","NORAD_CAT_ID":56796,"ELEMENT_SET_NO":999,"REV_AT_EPOCH":14018,"BSTAR":5.8243416e-5,"MEAN_MOTION_DOT":6.02e-6,"MEAN_MOTION_DDOT":0},{"OBJECT_NAME":"STARLINK-6058","OBJECT_ID":"2023-078AG","EPOCH":"2025-12-16T07:00:05.316480","MEAN_MOTION":14.98323524,"ECCENTRICITY":0.00029916,"INCLINATION":69.9984,"RA_OF_ASC_NODE":194.8979,"ARG_OF_PERICENTER":269.232,"MEAN_ANOMALY":90.8496,"EPHEMERIS_TYPE":0,"CLASSIFICATION_TYPE":"U","NORAD_CAT_ID":56797,"ELEMENT_SET_NO":999,"REV_AT_EPOCH":14018,"BSTAR":0.00019924595,"MEAN_MOTION_DOT":2.285e-5,"MEAN_MOTION_DDOT":0},{"OBJECT_NAME":"STARLINK-5953","OBJECT_ID":"2023-078AJ","EPOCH":"2025-12-15T23:59:29.094720","MEAN_MOTION":14.98324517,"ECCENTRICITY":0.00026005,"INCLINATION":69.9984,"RA_OF_ASC_NODE":195.4865,"ARG_OF_PERICENTER":267.3795,"MEAN_ANOMALY":92.7067,"EPHEMERIS_TYPE":0,"CLASSIFICATION_TYPE":"U","NORAD_CAT_ID":56799,"ELEMENT_SET_NO":999,"REV_AT_EPOCH":14014,"BSTAR":5.4228322e-5,"MEAN_MOTION_DOT":5.54e-6,"MEAN_MOTION_DDOT":0},{"OBJECT_NAME":"STARLINK-6036","OBJECT_ID":"2023-078AK","EPOCH":"2025-12-16T06:30:00.728064","MEAN_MOTION":14.98329921,"ECCENTRICITY":0.00027246,"INCLINATION":69.9983,"RA_OF_ASC_NODE":194.8314,"ARG_OF_PERICENTER":270.341,"MEAN_ANOMALY":89.7437,"EPHEMERIS_TYPE":0,"CLASSIFICATION_TYPE":"U","NORAD_CAT_ID":56800,"ELEMENT_SET_NO":999,"REV_AT_EPOCH":14018,"BSTAR":5.6389715e-5,"MEAN_MOTION_DOT":5.8e-6,"MEAN_MOTION_DDOT":0},{"OBJECT_NAME":"STARLINK-6087","OBJECT_ID":"2023-078AL","EPOCH":"2025-12-15T19:41:31.366752","MEAN_MOTION":14.9782002,"ECCENTRICITY":0.0002538,"INCLINATION":69.9985,"RA_OF_ASC_NODE":175.799,"ARG_OF_PERICENTER":352.1117,"MEAN_ANOMALY":8.0001,"EPHEMERIS_TYPE":0,"CLASSIFICATION_TYPE":"U","NORAD_CAT_ID":56801,"ELEMENT_SET_NO":999,"REV_AT_EPOCH":14061,"BSTAR":-0.0053583967,"MEAN_MOTION_DOT":-0.00062628,"MEAN_MOTION_DDOT":0}]
